[{"OBJECT_NAME":"JILIN-1 GAOFEN 2F","OBJECT_ID":"2021-097A","EPOCH":"2026-03-09T22:15:16.366464","MEAN_MOTION":15.06938169,"ECCENTRICITY":0.00186372,"INCLINATION":97.6538,"RA_OF_ASC_NODE":195.5232,"ARG_OF_PERICENTER":201.1609,"MEAN_ANOMALY":158.885,"EPHEMERIS_TYPE":0,"CLASSIFICATION_TYPE":"U","NORAD_CAT_ID":49338,"ELEMENT_SET_NO":999,"REV_AT_EPOCH":24136,"BSTAR":0.0003789548,"MEAN_MOTION_DOT":5.624e-5,"MEAN_MOTION_DDOT":0},{"OBJECT_NAME":"STARLINK-4588","OBJECT_ID":"2022-104BF","EPOCH":"2026-03-09T17:34:57.743328","MEAN_MOTION":15.08843863,"ECCENTRICITY":0.00012264,"INCLINATION":53.2166,"RA_OF_ASC_NODE":223.7924,"ARG_OF_PERICENTER":87.5023,"MEAN_ANOMALY":272.611,"EPHEMERIS_TYPE":0,"CLASSIFICATION_TYPE":"U","NORAD_CAT_ID":53641,"ELEMENT_SET_NO":999,"REV_AT_EPOCH":19623,"BSTAR":-6.2874278e-5,"MEAN_MOTION_DOT":-1.288e-5,"MEAN_MOTION_DDOT":0}]
